{"type": "FeatureCollection", "features": [ {"type": "Feature", "properties": {"norad_id": 30829, "name": "FENGYUN 1C DEB", "group": "fengyun-1c-debris", "lat": -68.80490111180151, "lon": 150.41309777239442, "alt_km": 852.1895851373765, "timestamp": "2025-12-27T15:27:11.469634+00:00", "meta": {"OBJECT_NAME": "FENGYUN 1C DEB", "OBJECT_ID": "1999-025AVP", "EPOCH": "2025-12-26T22:55:19.503840", "MEAN_MOTION": 14.08675637, "ECCENTRICITY": 0.0034796, "INCLINATION": 98.7782, "RA_OF_ASC_NODE": 353.225, "ARG_OF_PERICENTER": 293.9132, "MEAN_ANOMALY": 65.8394, "EPHEMERIS_TYPE": 0, "CLASSIFICATION_TYPE": "U", "NORAD_CAT_ID": 30829, "ELEMENT_SET_NO": 999, "REV_AT_EPOCH": 96633, "BSTAR": 0.00042323, "MEAN_MOTION_DOT": 6.89e-06, "MEAN_MOTION_DDOT": 0}, "tle": {"line1": "1 30829U 99025AVP 25360.95508685  .00000689  00000+0  42323-3 0  9998", "line2": "2 30829  98.7782 353.2250 0034796 293.9132  65.8394 14.08675637966332"}}, "geometry": {"type": "Point", "coordinates": [150.41309777239442, -68.80490111180151]}}, {"type": "Feature", "properties": {"norad_id": 30830, "name": "FENGYUN 1C DEB", "group": "fengyun-1c-debris", "lat": -63.154958419377394, "lon": 7.328673841260047, "alt_km": 878.299514215254, "timestamp": "2025-12-27T15:27:11.469644+00:00", "meta": {"OBJECT_NAME": "FENGYUN 1C DEB", "OBJECT_ID": "1999-025AVQ", "EPOCH": "2025-12-26T22:53:48.907392", "MEAN_MOTION": 14.12242909, "ECCENTRICITY": 0.0031371, "INCLINATION": 98.7304, "RA_OF_ASC_NODE": 348.9826, "ARG_OF_PERICENTER": 148.4546, "MEAN_ANOMALY": 241.6385, "EPHEMERIS_TYPE": 0, "CLASSIFICATION_TYPE": "U", "NORAD_CAT_ID": 30830, "ELEMENT_SET_NO": 999, "REV_AT_EPOCH": 96800, "BSTAR": 0.00027712, "MEAN_MOTION_DOT": 4.69e-06, "MEAN_MOTION_DDOT": 0}, "tle": {"line1": "1 30830U 99025AVQ 25360.95403828  .00000469  00000+0  27712-3 0  9994", "line2": "2 30830  98.7304 348.9826 0031371 148.4546 241.6385 14.12242909968000"}}, "geometry": {"type": "Point", "coordinates": [7.328673841260047, -63.154958419377394]}}, {"type": "Feature", "properties": {"norad_id": 30831, "name": "FENGYUN 1C DEB", "group": "fengyun-1c-debris", "lat": 68.52355082286935, "lon": 130.80042148284912, "alt_km": 773.8400160008368, "timestamp": "2025-12-27T15:27:11.469654+00:00", "meta": {"OBJECT_NAME": "FENGYUN 1C DEB", "OBJECT_ID": "1999-025AVR", "EPOCH": "2025-12-26T05:34:05.943072", "MEAN_MOTION": 14.31116177, "ECCENTRICITY": 0.0055085, "INCLINATION": 99.3287, "RA_OF_ASC_NODE": 153.9814, "ARG_OF_PERICENTER": 355.2233, "MEAN_ANOMALY": 4.8415, "EPHEMERIS_TYPE": 0, "CLASSIFICATION_TYPE": "U", "NORAD_CAT_ID": 30831, "ELEMENT_SET_NO": 999, "REV_AT_EPOCH": 65443, "BSTAR": 0.00042706, "MEAN_MOTION_DOT": 1.095e-05, "MEAN_MOTION_DDOT": 0}, "tle": {"line1": "1 30831U 99025AVR 25360.23201323  .00001095  00000+0  42706-3 0  9998", "line2": "2 30831  99.3287 153.9814 0055085 355.2233   4.8415 14.31116177654438"}}, "geometry": {"type": "Point", "coordinates": [130.80042148284912, 68.52355082286935]}}, {"type": "Feature", "properties": {"norad_id": 30833, "name": "FENGYUN 1C DEB", "group": "fengyun-1c-debris", "lat": -38.10284007675388, "lon": -38.25241714168564, "alt_km": 804.2853637405142, "timestamp": "2025-12-27T15:27:11.469664+00:00", "meta": {"OBJECT_NAME": "FENGYUN 1C DEB", "OBJECT_ID": "1999-025AVT", "EPOCH": "2025-12-27T06:01:09.228000", "MEAN_MOTION": 14.26797747, "ECCENTRICITY": 0.00330973, "INCLINATION": 99.8453, "RA_OF_ASC_NODE": 149.1326, "ARG_OF_PERICENTER": 140.5164, "MEAN_ANOMALY": 219.8433, "EPHEMERIS_TYPE": 0, "CLASSIFICATION_TYPE": "U", "NORAD_CAT_ID": 30833, "ELEMENT_SET_NO": 999, "REV_AT_EPOCH": 64618, "BSTAR": 0.00063818851, "MEAN_MOTION_DOT": 1.502e-05, "MEAN_MOTION_DDOT": 0}, "tle": {"line1": "1 30833U 99025AVT 25361.25080125  .00001502  00000+0  63819-3 0  9999", "line2": "2 30833  99.8453 149.1326 0033097 140.5164 219.8433 14.26797747646185"}}, "geometry": {"type": "Point", "coordinates": [-38.25241714168564, -38.10284007675388]}}, {"type": "Feature", "properties": {"norad_id": 30836, "name": "FENGYUN 1C DEB", "group": "fengyun-1c-debris", "lat": -66.13190374791718, "lon": 54.28760303822473, "alt_km": 860.0393135898648, "timestamp": "2025-12-27T15:27:11.469675+00:00", "meta": {"OBJECT_NAME": "FENGYUN 1C DEB", "OBJECT_ID": "1999-025AVW", "EPOCH": "2025-12-21T01:36:21.545856", "MEAN_MOTION": 14.11944491, "ECCENTRICITY": 0.00260217, "INCLINATION": 98.7439, "RA_OF_ASC_NODE": 27.5216, "ARG_OF_PERICENTER": 220.4586, "MEAN_ANOMALY": 139.4651, "EPHEMERIS_TYPE": 0, "CLASSIFICATION_TYPE": "U", "NORAD_CAT_ID": 30836, "ELEMENT_SET_NO": 999, "REV_AT_EPOCH": 62121, "BSTAR": 0.00026112112, "MEAN_MOTION_DOT": 4.36e-06, "MEAN_MOTION_DDOT": 0}, "tle": {"line1": "1 30836U 99025AVW 25355.06691604  .00000436  00000+0  26112-3 0  9994", "line2": "2 30836  98.7439  27.5216 0026021 220.4586 139.4651 14.11944491621212"}}, "geometry": {"type": "Point", "coordinates": [54.28760303822473, -66.13190374791718]}}, {"type": "Feature", "properties": {"norad_id": 30837, "name": "FENGYUN 1C DEB", "group": "fengyun-1c-debris", "lat": 64.56890606635743, "lon": -173.79895157473027, "alt_km": 815.211000156185, "timestamp": "2025-12-27T15:27:11.469685+00:00", "meta": {"OBJECT_NAME": "FENGYUN 1C DEB", "OBJECT_ID": "1999-025AVX", "EPOCH": "2025-12-26T22:04:57.961056", "MEAN_MOTION": 14.14539417, "ECCENTRICITY": 0.0033354, "INCLINATION": 98.68, "RA_OF_ASC_NODE": 346.7582, "ARG_OF_PERICENTER": 93.9164, "MEAN_ANOMALY": 296.2873, "EPHEMERIS_TYPE": 0, "CLASSIFICATION_TYPE": "U", "NORAD_CAT_ID": 30837, "ELEMENT_SET_NO": 999, "REV_AT_EPOCH": 97019, "BSTAR": 0.00036312, "MEAN_MOTION_DOT": 6.58e-06, "MEAN_MOTION_DDOT": 0}, "tle": {"line1": "1 30837U 99025AVX 25360.92011529  .00000658  00000+0  36312-3 0  9997", "line2": "2 30837  98.6800 346.7582 0033354  93.9164 296.2873 14.14539417970191"}}, "geometry": {"type": "Point", "coordinates": [-173.79895157473027, 64.56890606635743]}}, {"type": "Feature", "properties": {"norad_id": 30838, "name": "FENGYUN 1C DEB", "group": "fengyun-1c-debris", "lat": 71.53223965441187, "lon": 125.0211855330235, "alt_km": 700.2204524426443, "timestamp": "2025-12-27T15:27:11.469695+00:00", "meta": {"OBJECT_NAME": "FENGYUN 1C DEB", "OBJECT_ID": "1999-025AVY", "EPOCH": "2025-12-26T17:24:24.339744", "MEAN_MOTION": 14.47975462, "ECCENTRICITY": 0.00354132, "INCLINATION": 99.0425, "RA_OF_ASC_NODE": 275.5603, "ARG_OF_PERICENTER": 114.622, "MEAN_ANOMALY": 245.8666, "EPHEMERIS_TYPE": 0, "CLASSIFICATION_TYPE": "U", "NORAD_CAT_ID": 30838, "ELEMENT_SET_NO": 999, "REV_AT_EPOCH": 97516, "BSTAR": 0.0024954367, "MEAN_MOTION_DOT": 9.297e-05, "MEAN_MOTION_DDOT": 0}, "tle": {"line1": "1 30838U 99025AVY 25360.72528171  .00009297  00000+0  24954-2 0  9998", "line2": "2 30838  99.0425 275.5603 0035413 114.6220 245.8666 14.47975462975167"}}, "geometry": {"type": "Point", "coordinates": [125.0211855330235, 71.53223965441187]}}, {"type": "Feature", "properties": {"norad_id": 30840, "name": "FENGYUN 1C DEB", "group": "fengyun-1c-debris", "lat": -40.63646424920597, "lon": -174.4034862003623, "alt_km": 726.1379517523246, "timestamp": "2025-12-27T15:27:11.469705+00:00", "meta": {"OBJECT_NAME": "FENGYUN 1C DEB", "OBJECT_ID": "1999-025AWA", "EPOCH": "2025-12-26T12:07:59.151072", "MEAN_MOTION": 14.61247002, "ECCENTRICITY": 0.0216339, "INCLINATION": 98.0229, "RA_OF_ASC_NODE": 11.4441, "ARG_OF_PERICENTER": 327.3141, "MEAN_ANOMALY": 31.4823, "EPHEMERIS_TYPE": 0, "CLASSIFICATION_TYPE": "U", "NORAD_CAT_ID": 30840, "ELEMENT_SET_NO": 999, "REV_AT_EPOCH": 73332, "BSTAR": 0.0008072, "MEAN_MOTION_DOT": 5.501e-05, "MEAN_MOTION_DDOT": 0}, "tle": {"line1": "1 30840U 99025AWA 25360.50554573  .00005501  00000+0  80720-3 0  9990", "line2": "2 30840  98.0229  11.4441 0216339 327.3141  31.4823 14.61247002733323"}}, "geometry": {"type": "Point", "coordinates": [-174.4034862003623, -40.63646424920597]}}, {"type": "Feature", "properties": {"norad_id": 30843, "name": "FENGYUN 1C DEB", "group": "fengyun-1c-debris", "lat": -54.48817161552185, "lon": 86.66372584951903, "alt_km": 791.6583321434609, "timestamp": "2025-12-27T15:27:11.469715+00:00", "meta": {"OBJECT_NAME": "FENGYUN 1C DEB", "OBJECT_ID": "1999-025AWD", "EPOCH": "2025-12-24T03:23:32.017920", "MEAN_MOTION": 14.52491521, "ECCENTRICITY": 0.01488463, "INCLINATION": 98.841, "RA_OF_ASC_NODE": 70.3765, "ARG_OF_PERICENTER": 85.3289, "MEAN_ANOMALY": 276.4887, "EPHEMERIS_TYPE": 0, "CLASSIFICATION_TYPE": "U", "NORAD_CAT_ID": 30843, "ELEMENT_SET_NO": 999, "REV_AT_EPOCH": 99490, "BSTAR": 0.00012943843, "MEAN_MOTION_DOT": 5.54e-06, "MEAN_MOTION_DDOT": 0}, "tle": {"line1": "1 30843U 99025AWD 25358.14134280  .00000554  00000+0  12944-3 0  9995", "line2": "2 30843  98.8410  70.3765 0148846  85.3289 276.4887 14.52491521994901"}}, "geometry": {"type": "Point", "coordinates": [86.66372584951903, -54.48817161552185]}}, {"type": "Feature", "properties": {"norad_id": 30845, "name": "FENGYUN 1C DEB", "group": "fengyun-1c-debris", "lat": 41.47684379651309, "lon": -172.0485542106678, "alt_km": 973.9719728373357, "timestamp": "2025-12-27T15:27:11.469725+00:00", "meta": {"OBJECT_NAME": "FENGYUN 1C DEB", "OBJECT_ID": "1999-025AWF", "EPOCH": "2025-12-26T05:42:50.443776", "MEAN_MOTION": 13.7686738, "ECCENTRICITY": 0.0192212, "INCLINATION": 98.3793, "RA_OF_ASC_NODE": 359.2252, "ARG_OF_PERICENTER": 233.7548, "MEAN_ANOMALY": 141.9902, "EPHEMERIS_TYPE": 0, "CLASSIFICATION_TYPE": "U", "NORAD_CAT_ID": 30845, "ELEMENT_SET_NO": 999, "REV_AT_EPOCH": 94429, "BSTAR": 0.00029925, "MEAN_MOTION_DOT": 3e-06, "MEAN_MOTION_DDOT": 0}, "tle": {"line1": "1 30845U 99025AWF 25360.23808384  .00000300  00000+0  29925-3 0  9999", "line2": "2 30845  98.3793 359.2252 0192212 233.7548 141.9902 13.76867380944291"}}, "geometry": {"type": "Point", "coordinates": [-172.0485542106678, 41.47684379651309]}}]}